start=new Date('2022-08-04T00:00:00.000Z').valueOf();
sats=[{"MEAN_ELEMENT_THEORY":"SGP4","NORAD_CAT_ID":"49142","SITE":"AFWTR","TIME_SYSTEM":"UTC","APOAPSIS":"579.333","MEAN_MOTION":"14.96714335","ELEMENT_SET_NO":"999","FILE":"3528329","OBJECT_ID":"2021-082N","PERIOD":"96.211","SEMIMAJOR_AXIS":"6955.194","PERIAPSIS":"574.784","CENTER_NAME":"EARTH","TLE_LINE2":"2 49142  70.0009 327.5989 0003270 257.8556 102.2236 14.96714335 50128","OBJECT_NAME":"STARLINK-3042","RCS_SIZE":"LARGE","GP_ID":"209470867","TLE_LINE1":"1 49142U 21082N   22215.49404003  .00000117  00000-0  18184-4 0  9994","CLASSIFICATION_TYPE":"U","OBJECT_TYPE":"PAYLOAD","ECCENTRICITY":"0.00032700","EPHEMERIS_TYPE":"0","INCLINATION":"70.0009","MEAN_MOTION_DOT":"0.00000117","REF_FRAME":"TEME","ARG_OF_PERICENTER":"257.8556","LAUNCH_DATE":"2021-09-14","EPOCH":"2022-08-03T11:51:25.058592","MEAN_ANOMALY":"102.2236","COUNTRY_CODE":"US","RA_OF_ASC_NODE":"327.5989","REV_AT_EPOCH":"5012","DECAY_DATE":null,"BSTAR":"0.00001818400000","MEAN_MOTION_DDOT":"0.0000000000000"},{"OBJECT_TYPE":"PAYLOAD","CLASSIFICATION_TYPE":"U","TLE_LINE1":"1 49143U 21082P   22215.48006567  .00000975  00000-0  93165-4 0  9991","GP_ID":"209470881","RCS_SIZE":"LARGE","OBJECT_NAME":"STARLINK-3109","TLE_LINE2":"2 49143  70.0001 347.8873 0003385 248.0772 112.0027 14.96720735 49617","PERIAPSIS":"574.685","CENTER_NAME":"EARTH","SEMIMAJOR_AXIS":"6955.174","PERIOD":"96.210","FILE":"3528329","ELEMENT_SET_NO":"999","OBJECT_ID":"2021-082P","MEAN_MOTION":"14.96720735","APOAPSIS":"579.393","TIME_SYSTEM":"UTC","SITE":"AFWTR","NORAD_CAT_ID":"49143","MEAN_ELEMENT_THEORY":"SGP4","MEAN_MOTION_DDOT":"0.0000000000000","BSTAR":"0.00009316500000","DECAY_DATE":null,"RA_OF_ASC_NODE":"347.8873","REV_AT_EPOCH":"4961","COUNTRY_CODE":"US","MEAN_ANOMALY":"112.0027","EPOCH":"2022-08-03T11:31:17.673888","LAUNCH_DATE":"2021-09-14","ARG_OF_PERICENTER":"248.0772","REF_FRAME":"TEME","MEAN_MOTION_DOT":"0.00000975","EPHEMERIS_TYPE":"0","INCLINATION":"70.0001","ECCENTRICITY":"0.00033850"},{"MEAN_ANOMALY":"102.1458","COUNTRY_CODE":"US","MEAN_MOTION_DDOT":"0.0000000000000","BSTAR":"0.00007198700000","DECAY_DATE":null,"RA_OF_ASC_NODE":"7.9136","REV_AT_EPOCH":"4913","INCLINATION":"70.0006","EPHEMERIS_TYPE":"0","REF_FRAME":"TEME","MEAN_MOTION_DOT":"0.00000766","ECCENTRICITY":"0.00033930","LAUNCH_DATE":"2021-09-14","EPOCH":"2022-08-03T12:46:57.576576","ARG_OF_PERICENTER":"257.9321","RCS_SIZE":"LARGE","TLE_LINE2":"2 49144  70.0006   7.9136 0003393 257.9321 102.1458 14.98334413 49138","CENTER_NAME":"EARTH","PERIAPSIS":"569.686","OBJECT_NAME":"STARLINK-3100","CLASSIFICATION_TYPE":"U","TLE_LINE1":"1 49144U 21082Q   22215.53261084  .00000766  00000-0  71987-4 0  9991","OBJECT_TYPE":"PAYLOAD","GP_ID":"209495866","TIME_SYSTEM":"UTC","APOAPSIS":"574.402","MEAN_MOTION":"14.98334413","ELEMENT_SET_NO":"999","FILE":"3528364","OBJECT_ID":"2021-082Q","MEAN_ELEMENT_THEORY":"SGP4","NORAD_CAT_ID":"49144","SITE":"AFWTR","SEMIMAJOR_AXIS":"6950.179","PERIOD":"96.107"},{"GP_ID":"209471231","CLASSIFICATION_TYPE":"U","TLE_LINE1":"1 49145U 21082R   22215.48141142  .00000890  00000-0  85792-4 0  9995","OBJECT_TYPE":"PAYLOAD","TLE_LINE2":"2 49145  69.9981 327.6329 0002990 255.2073 104.8754 14.96716252 50112","CENTER_NAME":"EARTH","PERIAPSIS":"574.973","OBJECT_NAME":"STARLINK-3119","RCS_SIZE":"LARGE","PERIOD":"96.211","SEMIMAJOR_AXIS":"6955.188","MEAN_ELEMENT_THEORY":"SGP4","SITE":"AFWTR","NORAD_CAT_ID":"49145","APOAPSIS":"579.132","MEAN_MOTION":"14.96716252","TIME_SYSTEM":"UTC","FILE":"3528329","ELEMENT_SET_NO":"999","OBJECT_ID":"2021-082R","REV_AT_EPOCH":"5011","RA_OF_ASC_NODE":"327.6329","MEAN_MOTION_DDOT":"0.0000000000000","BSTAR":"0.00008579200000","DECAY_DATE":null,"MEAN_ANOMALY":"104.8754","COUNTRY_CODE":"US","ARG_OF_PERICENTER":"255.2073","LAUNCH_DATE":"2021-09-14","EPOCH":"2022-08-03T11:33:13.946688","ECCENTRICITY":"0.00029900","EPHEMERIS_TYPE":"0","INCLINATION":"69.9981","REF_FRAME":"TEME","MEAN_MOTION_DOT":"0.00000890"},{"OBJECT_NAME":"STARLINK-3116","TLE_LINE2":"2 49146  70.0016 347.9042 0003189 257.9000 102.1801 14.96726509 50785","PERIAPSIS":"574.803","CENTER_NAME":"EARTH","RCS_SIZE":"LARGE","GP_ID":"209468422","OBJECT_TYPE":"PAYLOAD","CLASSIFICATION_TYPE":"U","TLE_LINE1":"1 49146U 21082S   22215.47521188  .00001453  00000-0  13491-3 0  9999","SITE":"AFWTR","NORAD_CAT_ID":"49146","MEAN_ELEMENT_THEORY":"SGP4","OBJECT_ID":"2021-082S","FILE":"3528212","ELEMENT_SET_NO":"999","APOAPSIS":"579.239","MEAN_MOTION":"14.96726509","TIME_SYSTEM":"UTC","SEMIMAJOR_AXIS":"6955.156","PERIOD":"96.210","COUNTRY_CODE":"US","MEAN_ANOMALY":"102.1801","REV_AT_EPOCH":"5078","RA_OF_ASC_NODE":"347.9042","MEAN_MOTION_DDOT":"0.0000000000000","BSTAR":"0.00013491000000","DECAY_DATE":null,"ECCENTRICITY":"0.00031890","REF_FRAME":"TEME","MEAN_MOTION_DOT":"0.00001453","EPHEMERIS_TYPE":"0","INCLINATION":"70.0016","ARG_OF_PERICENTER":"257.9000","EPOCH":"2022-08-03T11:24:18.306432","LAUNCH_DATE":"2021-09-14"},{"NORAD_CAT_ID":"49147","SITE":"AFWTR","MEAN_ELEMENT_THEORY":"SGP4","FILE":"3528212","OBJECT_ID":"2021-082T","ELEMENT_SET_NO":"999","TIME_SYSTEM":"UTC","APOAPSIS":"579.303","MEAN_MOTION":"14.96709644","SEMIMAJOR_AXIS":"6955.208","PERIOD":"96.211","OBJECT_NAME":"STARLINK-3071","CENTER_NAME":"EARTH","PERIAPSIS":"574.843","TLE_LINE2":"2 49147  70.0018 327.6074 0003206 261.1024  98.9771 14.96709644 51297","RCS_SIZE":"LARGE","GP_ID":"209468414","OBJECT_TYPE":"PAYLOAD","TLE_LINE1":"1 49147U 21082T   22215.48918658 -.00001091  00000-0 -87300-4 0  9994","CLASSIFICATION_TYPE":"U","ECCENTRICITY":"0.00032060","MEAN_MOTION_DOT":"-0.00001091","REF_FRAME":"TEME","EPHEMERIS_TYPE":"0","INCLINATION":"70.0018","ARG_OF_PERICENTER":"261.1024","EPOCH":"2022-08-03T11:44:25.720512","LAUNCH_DATE":"2021-09-14","COUNTRY_CODE":"US","MEAN_ANOMALY":"98.9771","RA_OF_ASC_NODE":"327.6074","REV_AT_EPOCH":"5129","BSTAR":"-0.00008730000000","DECAY_DATE":null,"MEAN_MOTION_DDOT":"0.0000000000000"},{"ECCENTRICITY":"0.00031930","INCLINATION":"70.0006","EPHEMERIS_TYPE":"0","REF_FRAME":"TEME","MEAN_MOTION_DOT":"-0.00001106","ARG_OF_PERICENTER":"254.0554","LAUNCH_DATE":"2021-09-14","EPOCH":"2022-08-03T12:53:34.262304","MEAN_ANOMALY":"106.0252","COUNTRY_CODE":"US","RA_OF_ASC_NODE":"347.7413","REV_AT_EPOCH":"5075","MEAN_MOTION_DDOT":"0.0000000000000","BSTAR":"-0.00008864700000","DECAY_DATE":null,"MEAN_ELEMENT_THEORY":"SGP4","NORAD_CAT_ID":"49148","SITE":"AFWTR","TIME_SYSTEM":"UTC","APOAPSIS":"579.287","MEAN_MOTION":"14.96711917","OBJECT_ID":"2021-082U","FILE":"3528393","ELEMENT_SET_NO":"999","PERIOD":"96.211","SEMIMAJOR_AXIS":"6955.201","TLE_LINE2":"2 49148  70.0006 347.7413 0003193 254.0554 106.0252 14.96711917 50750","PERIAPSIS":"574.845","CENTER_NAME":"EARTH","OBJECT_NAME":"STARLINK-3048","RCS_SIZE":"LARGE","GP_ID":"209497409","CLASSIFICATION_TYPE":"U","TLE_LINE1":"1 49148U 21082U   22215.53720211 -.00001106  00000-0 -88647-4 0  9999","OBJECT_TYPE":"PAYLOAD"},{"MEAN_ANOMALY":"101.1601","COUNTRY_CODE":"US","REV_AT_EPOCH":"5033","RA_OF_ASC_NODE":"7.9154","MEAN_MOTION_DDOT":"0.0000000000000","DECAY_DATE":null,"BSTAR":"0.00009053100000","ECCENTRICITY":"0.00032880","EPHEMERIS_TYPE":"0","INCLINATION":"70.0013","REF_FRAME":"TEME","MEAN_MOTION_DOT":"0.00000987","ARG_OF_PERICENTER":"258.9188","LAUNCH_DATE":"2021-09-14","EPOCH":"2022-08-03T12:40:06.001536","TLE_LINE2":"2 49149  70.0013   7.9154 0003288 258.9188 101.1601 14.98330539 50334","CENTER_NAME":"EARTH","PERIAPSIS":"569.771","OBJECT_NAME":"STARLINK-3053","RCS_SIZE":"LARGE","GP_ID":"209497417","CLASSIFICATION_TYPE":"U","TLE_LINE1":"1 49149U 21082V   22215.52784724  .00000987  00000-0  90531-4 0  9997","OBJECT_TYPE":"PAYLOAD","MEAN_ELEMENT_THEORY":"SGP4","SITE":"AFWTR","NORAD_CAT_ID":"49149","APOAPSIS":"574.341","TIME_SYSTEM":"UTC","MEAN_MOTION":"14.98330539","FILE":"3528394","OBJECT_ID":"2021-082V","ELEMENT_SET_NO":"999","SEMIMAJOR_AXIS":"6950.191","PERIOD":"96.107"},{"ECCENTRICITY":"0.00032830","MEAN_MOTION_DOT":"-0.00000514","REF_FRAME":"TEME","EPHEMERIS_TYPE":"0","INCLINATION":"70.0025","ARG_OF_PERICENTER":"257.8208","EPOCH":"2022-08-03T12:33:13.662720","LAUNCH_DATE":"2021-09-14","COUNTRY_CODE":"US","MEAN_ANOMALY":"102.2583","REV_AT_EPOCH":"5032","RA_OF_ASC_NODE":"7.9294","DECAY_DATE":null,"BSTAR":"-0.00003529400000","MEAN_MOTION_DDOT":"0.0000000000000","NORAD_CAT_ID":"49150","SITE":"AFWTR","MEAN_ELEMENT_THEORY":"SGP4","OBJECT_ID":"2021-082W","FILE":"3528364","ELEMENT_SET_NO":"999","TIME_SYSTEM":"UTC","APOAPSIS":"574.326","MEAN_MOTION":"14.98334278","SEMIMAJOR_AXIS":"6950.180","PERIOD":"96.107","OBJECT_NAME":"STARLINK-3104","CENTER_NAME":"EARTH","PERIAPSIS":"569.763","TLE_LINE2":"2 49150  70.0025   7.9294 0003283 257.8208 102.2583 14.98334278 50324","RCS_SIZE":"LARGE","GP_ID":"209494365","OBJECT_TYPE":"PAYLOAD","TLE_LINE1":"1 49150U 21082W   22215.52307480 -.00000514  00000-0 -35294-4 0  9992","CLASSIFICATION_TYPE":"U"},{"ECCENTRICITY":"0.00031980","EPHEMERIS_TYPE":"0","INCLINATION":"69.9993","MEAN_MOTION_DOT":"-0.00000762","REF_FRAME":"TEME","ARG_OF_PERICENTER":"259.6808","LAUNCH_DATE":"2021-09-14","EPOCH":"2022-08-03T11:19:10.793280","MEAN_ANOMALY":"100.3990","COUNTRY_CODE":"US","RA_OF_ASC_NODE":"327.6606","REV_AT_EPOCH":"5131","DECAY_DATE":null,"BSTAR":"-0.00005857300000","MEAN_MOTION_DDOT":"0.0000000000000","MEAN_ELEMENT_THEORY":"SGP4","SITE":"AFWTR","NORAD_CAT_ID":"49151","TIME_SYSTEM":"UTC","APOAPSIS":"579.286","MEAN_MOTION":"14.96713500","FILE":"3528364","ELEMENT_SET_NO":"999","OBJECT_ID":"2021-082X","PERIOD":"96.211","SEMIMAJOR_AXIS":"6955.196","PERIAPSIS":"574.837","CENTER_NAME":"EARTH","TLE_LINE2":"2 49151  69.9993 327.6606 0003198 259.6808 100.3990 14.96713500 51314","OBJECT_NAME":"STARLINK-3102","RCS_SIZE":"LARGE","GP_ID":"209494615","TLE_LINE1":"1 49151U 21082X   22215.47165270 -.00000762  00000-0 -58573-4 0  9996","CLASSIFICATION_TYPE":"U","OBJECT_TYPE":"PAYLOAD"}];
